AOR-E (EGNOS/PRN 120)   
1 24307U 96053A   15080.13669757 -.00000150  00000-0  00000+0 0  9993
2 24307   0.9628  81.9793 0006230 273.2828 216.7999  1.00272339 67860
ARTEMIS (EGNOS/PRN 124) 
1 26863U 01029A   15079.06831836  .00000096  00000-0  00000+0 0  9998
2 26863  11.7021  42.0815 0003428 314.9923 226.2083  1.00273782 51231
MTSAT-1R (MSAS/PRN 129) 
1 28622U 05006A   15080.64545971 -.00000309  00000-0  00000+0 0  9998
2 28622   0.0152 126.5347 0004335 246.1996 178.3806  1.00271767 36845
CRE (WAAS/PRN 138)      
1 28868U 05036A   15080.37942760 -.00000102  00000-0  00000+0 0  9991
2 28868   0.0225  79.0948 0002572 298.7782 189.9706  1.00272335 34986
CRW (WAAS/PRN 135)      
1 28884U 05041A   15078.15385843  .00000053  00000-0  00000+0 0  9995
2 28884   0.0152 109.2409 0001255 252.3716  97.1009  1.00271619 34475
IOR-W (EGNOS/PRN 126)   
1 28899U 05044A   15081.06263700  .00000110  00000-0  00000+0 0  9999
2 28899   2.4269   0.4468 0002132  14.6572 211.7385  1.00272158 34343
MTSAT-2 (MSAS/PRN 137)  
1 28937U 06004A   15080.25099866 -.00000271  00000-0  00000+0 0  9998
2 28937   0.0385 260.3986 0003193 105.9334  47.4495  1.00272494 33235
AMR (WAAS/PRN 133)      
1 33278U 08039A   15080.23231273 -.00000167  00000-0  00000+0 0  9994
2 33278   3.0099 353.5628 0002696   1.9548 168.5292  1.00271596 24109
QZS-1 (QZSS/PRN 183)    
1 37158U 10045A   15079.55417752 -.00000206  00000-0  00000+0 0  9990
2 37158  40.6102 171.2771 0751047 270.1152  72.1799  1.00258166 16558
GSAT-8 (GAGAN/PRN 127)  
1 37605U 11022A   15080.15303039  .00000057  00000-0  10000-3 0  9991
2 37605   0.0215 202.7977 0005658  85.8004 359.8624  1.00270886 14075
LUCH 5A (SDCM/PRN 140)  
1 37951U 11074B   15080.50904883 -.00000076  00000-0  00000+0 0  9992
2 37951   2.4044 239.7184 0002388 133.1753 155.9586  1.00271661 12016
SES-5 (EGNOS/PRN 136)   
1 38652U 12036A   15081.06214912  .00000005  00000-0  00000+0 0  9990
2 38652   0.0674 267.2170 0002014 147.7954 151.5365  1.00270660  9908
GSAT-10 (GAGAN/PRN 128) 
1 38779U 12051B   15079.01450660 -.00000189  00000-0  00000+0 0  9995
2 38779   0.0214 206.9155 0003407 263.6911 154.7545  1.00262907  9101
LUCH 5B (SDCM/PRN 125)  
1 38977U 12061A   15081.17294803 -.00000154  00000-0  00000+0 0  9993
2 38977   1.8973  82.1740 0001739 208.9452 294.5531  1.00270176  9019
ASTRA 5B (EGNOS/PRN 123)
1 39617U 14011B   15080.83205757  .00000126  00000-0  00000+0 0  9992
2 39617   0.0446 305.6449 0001999  62.3330 142.1015  1.00275195  3702
LUCH 5V (SDCM/PRN 141)  
1 39727U 14023A   15080.67625831 -.00000304  00000-0  00000+0 0  9997
2 39727   4.2208 301.4011 0003256  86.0554 129.9164  1.00269528521351
